satname,norad_id,inclination_deg,eccentricity,mean_motion_rev_per_day,perigee_km,apogee_km,l1,l2
STARLINK-1008,44714,53.1593,0.0001299,15.31021178,471.8743438314068,473.6542079828869,1 44714U 19074B   26034.10858321 -.00000474  00000+0 -36567-5 0  9992,2 44714  53.1593 339.5849 0001299  80.4695 279.6453 15.31021178343579
STARLINK-1012,44718,53.1596,0.0001402,15.30198845,474.2576775996731,476.17935848693287,1 44718U 19074F   26034.13533931  .00000551  00000+0  30742-4 0  9998,2 44718  53.1596 339.3072 0001402  95.3674 264.7487 15.30198845343577
STARLINK-1017,44723,53.0461,0.0002775,15.21437281,499.5953639783611,503.41356499114954,1 44723U 19074L   26034.08160182  .00013033  00000+0  58634-3 0  9990,2 44723  53.0461 330.7618 0002775  97.7299 262.4012 15.21437281343699
STARLINK-1019,44724,53.0487,0.0011288,15.70921574,348.6601284005037,363.8637073975524,1 44724U 19074M   26034.66668981  .00143510  00000+0  11079-2 0  9990,2 44724  53.0487 306.5303 0011288  82.8693 122.2556 15.70921574  5814
STARLINK-1020,44725,53.0562,0.0001266,15.06424821,546.2587466959349,548.0122256894383,1 44725U 19074N   26034.31694539  .00001827  00000+0  14140-3 0  9998,2 44725  53.0562   0.9240 0001266  96.3425 263.7708 15.06424821343280
STARLINK-1031,44736,53.0441,0.000726,15.7646614,335.58464035530505,345.34004660203664,1 44736U 19074Z   26034.66668981  .00177375  00000+0  10762-2 0  9997,2 44736  53.0441 291.6683 0007260 113.0902 160.4814 15.76466140  5974
STARLINK-1036,44741,53.0559,0.0005111,15.48824024,416.6904468486691,423.639671213411,1 44741U 19074AE  26034.66668981  .00147402  00000+0  26523-2 0  9993,2 44741  53.0559 352.3536 0005111  99.4712 175.3216 15.48824024  5688
STARLINK-1039,44744,53.0527,0.0005868,15.18744736,505.59148441065827,513.6749715502165,1 44744U 19074AH  26034.62372913  .00048970  00000+0  23273-2 0  9998,2 44744  53.0527  11.3159 0005868  75.1822 284.9822 15.18744736343178
STARLINK-1042,44747,53.0434,0.0003746,15.48010922,419.99788093681764,425.09295220331205,1 44747U 19074AL  26034.58408232  .00023304  00000+0  44539-3 0  9993,2 44747  53.0434 258.2004 0003746  93.5454 266.5981 15.48010922344783
STARLINK-1043,44748,53.0551,0.0002444,15.51323981,411.19973860506616,414.5191776738038,1 44748U 19074AM  26034.28094476  .00034311  00000+0  57946-3 0  9998,2 44748  53.0551   0.2107 0002444  46.4392 313.6819 15.51323981343302
STARLINK-1046,44751,53.056,0.0006294,15.40763074,439.5621981878967,448.149722926647,1 44751U 19074AQ  26034.66668981  .00095311  00000+0  22744-2 0  9996,2 44751  53.0560  12.2040 0006294  69.7970   0.3993 15.40763074  5792
STARLINK-1047,44752,53.0709,0.000499,15.3175609,467.155292766839,473.9903051461979,1 44752U 19074AR  26034.44587715  .00011599  00000+0  38422-3 0  9995,2 44752  53.0709 305.8764 0004990 102.8718 257.2840 15.31756090344095
STARLINK-1048,44753,53.0567,0.0006086,15.44367208,429.0926381866575,437.3834438866079,1 44753U 19074AS  26034.55382718  .00060928  00000+0  12977-2 0  9990,2 44753  53.0567 332.7775 0006086  97.6264 262.5433 15.44367208343701
STARLINK-1053,44758,53.0314,0.0002496,15.78307627,333.5597281716791,336.9110436667306,1 44758U 19074AX  26034.04342482  .00117446  00000+0  66328-3 0  9991,2 44758  53.0314 258.4462 0002496 157.8385 202.2743 15.78307627344710
STARLINK-1060,44765,53.0364,0.0003843,16.06861618,252.91741453818577,258.0160023484941,1 44765U 19074BE  26034.98019947  .00989292  54815-3  12596-2 0  9999,2 44765  53.0364 292.1924 0003843 226.4914 133.5799 16.06861618344308
STARLINK-1063,44768,53.1553,0.0001729,15.29322984,476.6495348910794,479.0203299853156,1 44768U 19074BH  26034.66668981  .00004539  00000+0  16970-3 0  9991,2 44768  53.1553  17.4221 0001729  86.9871 325.2411 15.29322984  5747
STARLINK-1067,44771,53.055,0.0007007,15.48593048,416.0769859524016,425.60507376344503,1 44771U 19074BL  26034.66668981  .00128924  00000+0  23443-2 0  9992,2 44771  53.0550   8.3033 0007007  86.9290 287.9948 15.48593048  5805
STARLINK-1068,44772,53.0545,0.000464,15.55694439,396.98961376881925,403.27984993597784,1 44772U 19074BM  26034.66668981  .00150560  00000+0  21160-2 0  9998,2 44772  53.0545 345.5085 0004640 100.7654 302.0186 15.55694439  5900
STARLINK-1112,44925,53.0443,0.0002832,15.84763124,315.0957444844644,318.88786543959486,1 44925U 20001M   26034.66668981  .00195787  00000+0  81066-3 0  9992,2 44925  53.0443  55.7882 0002832  18.0961 284.8037 15.84763124  5941
STARLINK-1114,44927,53.0522,0.0005536,15.44535795,428.97188543422635,436.51289109291156,1 44927U 20001P   26034.63835217  .00067295  00000+0  14231-2 0  9990,2 44927  53.0522 132.0846 0005536 357.4877   2.6100 15.44535795334826
STARLINK-1123,44930,53.0555,0.0001411,15.06410287,546.2028677113694,548.1571921772202,1 44930U 20001S   26034.55470737  .00004365  00000+0  31168-3 0  9995,2 44930  53.0555 139.8592 0001411  85.2615 274.8535 15.06410287334701
STARLINK-1144,44933,53.0311,0.0005918,16.05277064,255.9029531413853,263.75965242456004,1 44933U 20001V   26034.85600692  .00807724  34203-3  11303-2 0  9990,2 44933  53.0311  24.3033 0005918  70.3556 289.8114 16.05277064337646
STARLINK-1094,44941,53.1576,0.0001346,15.3015442,474.4286869545367,476.2736459689486,1 44941U 20001AD  26034.66668981  .00064821  00000+0  21848-2 0  9995,2 44941  53.1576 117.5989 0001346  87.8774 339.5659 15.30154420  5747
STARLINK-1122,44949,53.1565,0.0001566,15.29362706,476.6425922820117,478.78984551016856,1 44949U 20001AM  26034.61115005  .00008159  00000+0  29469-3 0  9992,2 44949  53.1565 117.8562 0001566  89.4290 270.6890 15.29362706335012
STARLINK-1080,44961,53.0531,0.0007605,15.42890867,432.39904607634526,442.7657552847804,1 44961U 20001AZ  26034.45040176  .00047001  00000+0  10558-2 0  9991,2 44961  53.0531  91.1315 0007605   0.3853 359.7156 15.42890867335388
STARLINK-1090,44968,53.0549,0.000146,15.06424993,546.1238693459636,548.1460487580061,1 44968U 20001BG  26034.59156120  .00003502  00000+0  25370-3 0  9997,2 44968  53.0549  99.6925 0001460  98.7155 261.3999 15.06424993335277
STARLINK-1132,45044,53.1579,0.0003296,15.38503342,448.28362762182496,452.7850877808214,1 45044U 20006A   26034.48505840  .00071462  00000+0  18458-2 0  9991,2 45044  53.1579  55.5402 0003296  70.4827 289.6533 15.38503342331656
STARLINK-1131,45047,53.1518,0.0001271,15.28602061,479.1187150833666,480.8620510641449,1 45047U 20006D   26034.66668981  .00869795  00000+0  28705-1 0  9999,2 45047  53.1518  78.9483 0001271  73.7021 128.0551 15.28602061  5801
STARLINK-1134,45048,53.0351,0.0006988,15.39366561,443.2111858402768,452.7513687446217,1 45048U 20006E   26034.66668981  .00065223  00000+0  16390-2 0  9992,2 45048  53.0351  39.6079 0006988  64.0296 343.2190 15.39366561  5824
STARLINK-1156,45054,53.1251,0.000137,15.2277954,496.5191917654902,498.4031056582371,1 45054U 20006L   26034.66668981  .00922477  00000+0  36076-1 0  9994,2 45054  53.1251  78.8478 0001370  73.5556  45.2342 15.22779540  5794
STARLINK-1159,45057,53.0475,0.0005342,15.70190344,354.75390747227266,361.95117289700556,1 45057U 20006P   26034.66668981  .00149534  00000+0  11922-2 0  9996,2 45057  53.0475  44.6416 0005342   8.0893  70.9922 15.70190344  5956
STARLINK-1166,45060,53.054,0.000334,15.40721078,441.7013393182933,446.2585134251103,1 45060U 20006S   26034.64040591  .00087143  00000+0  20863-2 0  9990,2 45060  53.0540  74.3873 0003340  31.0218 329.0983 15.40721078331401
STARLINK-1169,45061,53.1188,6.23e-05,15.21369174,501.28116870116537,502.13839761034615,1 45061U 20006T   26034.66668981  .01074598  00000+0  43828-1 0  9998,2 45061  53.1188  78.8091 0000623  68.0202 252.2002 15.21369174  5801
STARLINK-1171,45062,53.0488,0.0004664,15.504594,412.2152961485226,418.5522923453964,1 45062U 20006U   26034.31061043  .00107325  00000+0  18347-2 0  9990,2 45062  53.0488  55.5115 0004664 281.3100  78.7384 15.50459400331641
STARLINK-1133,45064,53.1592,0.0001345,15.30201823,474.2878511540912,476.13140139655934,1 45064U 20006W   26034.30986027  .00001894  00000+0  76066-4 0  9997,2 45064  53.1592  57.4931 0001345  97.0982 263.0172 15.30201823331613
STARLINK-1167,45071,53.1608,0.0002045,15.29374893,476.27778320852394,479.0818122788005,1 45071U 20006AD  26034.31898104  .00004720  00000+0  17569-3 0  9997,2 45071  53.1608  57.2980 0002045  75.3884 284.7343 15.29374893331615
STARLINK-1168,45072,53.161,0.00015,15.29374025,476.65401885847496,478.71076467600597,1 45072U 20006AE  26034.32877592  .00005328  00000+0  19672-3 0  9999,2 45072  53.1610  57.3117 0001500  92.1488 267.9685 15.29374025331613
STARLINK-1172,45074,53.1577,0.0001451,15.30226282,474.14218722889564,476.13100722681065,1 45074U 20006AG  26034.54795173  .00009617  00000+0  33613-3 0  9995,2 45074  53.1577  56.4090 0001451  97.6298 262.4868 15.30226282331640
STARLINK-1153,45080,53.1591,0.0001714,15.29372435,476.51205524062334,478.86223175701525,1 45080U 20006AN  26034.43408890  .00004358  00000+0  16320-3 0  9990,2 45080  53.1591  56.6805 0001714  83.5218 276.5978 15.29372435331634
STARLINK-1151,45081,53.0525,0.001079,15.52239857,402.8633086143964,417.51251377275366,1 45081U 20006AP  26034.66668981  .00071156  00000+0  11472-2 0  9997,2 45081  53.0525  44.9001 0010790  25.7820 195.5958 15.52239857  5856
STARLINK-1185,45087,53.0763,0.0002287,15.11964095,528.6307873820042,531.7906656321093,1 45087U 20006AV  26034.66668981  .00011468  00000+0  67703-3 0  9992,2 45087  53.0763  39.2678 0002287  78.6159 106.5028 15.11964095  5749
STARLINK-1183,45088,53.0606,0.0001929,15.07642225,542.0717657948226,544.7420974436427,1 45088U 20006AW  26034.52979293  .00251168  00000+0  15752-1 0  9997,2 45088  53.0606  39.9613 0001929 102.8308 257.2897 15.07642225331877
STARLINK-1152,45096,53.0438,0.0006475,15.34288919,458.6037584228188,467.46307411188536,1 45096U 20006BE  26034.31254470  .00057697  00000+0  17107-2 0  9994,2 45096  53.0438   8.0776 0006475  77.3960 282.7765 15.34288919332309
